APRIZESAT 2             
1 28366U 04025A   23332.55963178  .00000543  00000+0  18429-3 0  9991
2 28366  98.0944 177.6666 0106966 181.3346 178.7572 14.37134015 17806
SAUDICOMSAT 1           
1 28369U 04025D   23332.88163858  .00001265  00000+0  31229-3 0  9992
2 28369  98.5145 305.3976 0033061 356.8035   3.2944 14.53567009 28730
SAUDICOMSAT 2           
1 28370U 04025E   23333.48307258  .00000848  00000+0  23479-3 0  9999
2 28370  98.6066 306.3516 0056583 195.9044 164.0374 14.48370667 25356
APRIZESAT 1             
1 28372U 04025G   23333.48162611  .00000807  00000+0  21591-3 0  9991
2 28372  98.5680 305.9521 0046789 103.9968 256.6434 14.50370456 26963
NANOSAT-1               
1 28493U 04049B   23333.17322807  .00002481  00000+0  37131-3 0  9999
2 28493  98.1349  80.3366 0005096  50.8221 309.3439 14.75591156 17942
SAUDICOMSAT 7           
1 31119U 07012C   23333.08738418  .00001552  00000+0  30418-3 0  9999
2 31119  98.2512 281.3257 0057363 232.7395 126.8568 14.63202541886171
SAUDICOMSAT 6           
1 31121U 07012E   23332.84656474  .00002056  00000+0  42343-3 0  9996
2 31121  98.2860 276.0745 0074827 347.1532  12.7759 14.59871548884156
SAUDICOMSAT 5           
1 31124U 07012H   23333.40581089  .00001658  00000+0  31307-3 0  9996
2 31124  98.2217 282.7775 0050259 171.3649 188.8430 14.65005711887210
SAUDICOMSAT 3           
1 31125U 07012J   23332.84807671  .00002014  00000+0  36331-3 0  9991
2 31125  98.1883 283.1442 0043218 113.7774 246.7970 14.66998834888088
SAUDICOMSAT 4           
1 31127U 07012L   23333.43068304  .00001915  00000+0  38342-3 0  9994
2 31127  98.2724 280.1691 0065183 285.9072  73.4952 14.61682043885322
APRIZESAT 4             
1 35684U 09041D   23333.10182466  .00001639  00000+0  21615-3 0  9998
2 35684  98.2662   9.0960 0047119  90.7467 269.9144 14.80791251773460
APRIZESAT 3             
1 35686U 09041F   23332.84463339  .00004106  00000+0  41386-3 0  9990
2 35686  98.1069  76.6026 0068074 253.4833 105.8898 14.90004798777375
AISSAT 1                
1 36797U 10035C   23332.53250439  .00004693  00000+0  49598-3 0  9994
2 36797  98.2066 181.5030 0009146 243.4193 116.6087 14.89713563725267
S-NET D                 
1 43186U 18014G   23332.69329211  .00007335  00000+0  56299-3 0  9993
2 43186  97.6000 233.2738 0011622 337.8764  22.1958 15.02016276318238
S-NET B                 
1 43187U 18014H   23333.16111975  .00007106  00000+0  54545-3 0  9991
2 43187  97.6007 233.6672 0012196 332.0930  27.9639 15.02020512318301
S-NET A                 
1 43188U 18014J   23333.16091753  .00007253  00000+0  55661-3 0  9996
2 43188  97.6009 233.7646 0012039 332.5301  27.5286 15.02025824318304
S-NET C                 
1 43189U 18014K   23333.16358247  .00006889  00000+0  52871-3 0  9995
2 43189  97.6033 233.6745 0013374 325.7080  34.3281 15.02027324316858
SALSAT                  
1 46495U 20068K   23332.87465295  .00009294  00000+0  57729-3 0  9999
2 46495  97.7920 283.0078 0012968 282.7442  77.2336 15.09839073173900
